{
    "links": {
        "self": "http://www.neowsapp.com/rest/v1/neo/3799284?api_key=iIulBulltgU6a56xZRHN4H3l9WmuAYTsLGpBGhQ2"
    },
    "id": "3799284",
    "neo_reference_id": "3799284",
    "name": "(2018 CK2)",
    "designation": "2018 CK2",
    "nasa_jpl_url": "http://ssd.jpl.nasa.gov/sbdb.cgi?sstr=3799284",
    "absolute_magnitude_h": 25.0,
    "estimated_diameter": {
        "kilometers": {
            "estimated_diameter_min": 0.02658,
            "estimated_diameter_max": 0.0594346868
        },
        "meters": {
            "estimated_diameter_min": 26.58,
            "estimated_diameter_max": 59.4346868419
        },
        "miles": {
            "estimated_diameter_min": 0.0165160412,
            "estimated_diameter_max": 0.0369309908
        },
        "feet": {
            "estimated_diameter_min": 87.2047272,
            "estimated_diameter_max": 194.9956979785
        }
    },
    "is_potentially_hazardous_asteroid": false,
    "close_approach_data": [
        {
            "close_approach_date": "2015-02-10",
            "close_approach_date_full": "2015-Feb-10 17:33",
            "epoch_date_close_approach": 1423589580000,
            "relative_velocity": {
                "kilometers_per_second": "12.7598565549",
                "kilometers_per_hour": "45935.4835974856",
                "miles_per_hour": "28542.5231275598"
            },
            "miss_distance": {
                "astronomical": "0.4556780011",
                "lunar": "177.2587424279",
                "kilometers": "68168458.370417657",
                "miles": "42357915.8687193866"
            },
            "orbiting_body": "Earth"
        },
        {
            "close_approach_date": "2018-02-17",
            "close_approach_date_full": "2018-Feb-17 23:32",
            "epoch_date_close_approach": 1518910320000,
            "relative_velocity": {
                "kilometers_per_second": "11.4237992079",
                "kilometers_per_hour": "41125.6771484598",
                "miles_per_hour": "25553.8964481638"
            },
            "miss_distance": {
                "astronomical": "0.0927896718",
                "lunar": "36.0951823302",
                "kilometers": "13881137.259279066",
                "miles": "8625338.7306444708"
            },
            "orbiting_body": "Earth"
        },
        {
            "close_approach_date": "2021-02-08",
            "close_approach_date_full": "2021-Feb-08 22:51",
            "epoch_date_close_approach": 1612824660000,
            "relative_velocity": {
                "kilometers_per_second": "17.469365477",
                "kilometers_per_hour": "62889.7157173627",
                "miles_per_hour": "39077.2236356024"
            },
            "miss_distance": {
                "astronomical": "0.3816751828",
                "lunar": "148.4716461092",
                "kilometers": "57097794.378740636",
                "miles": "35478924.2473713368"
            },
            "orbiting_body": "Earth"
        }
    ],
    "orbital_data": {
        "orbit_id": "1",
        "orbit_determination_date": "2018-02-10 15:12:03",
        "first_observation_date": "2018-02-08",
        "last_observation_date": "2018-02-10",
        "data_arc_in_days": 2,
        "observations_used": 22,
        "orbit_uncertainty": "8",
        "minimum_orbit_intersection": ".0835544",
        "jupiter_tisserand_invariant": "4.942",
        "epoch_osculation": "2458158.5",
        "eccentricity": ".1934281808499384",
        "semi_major_axis": "1.291084318565225",
        "inclination": "21.13336544162869",
        "ascending_node_longitude": "325.0579791023508",
        "orbital_period": "535.8340851578384",
        "perihelion_distance": "1.041352227501271",
        "perihelion_argument": "216.1079377540577",
        "aphelion_distance": "1.540816409629179",
        "perihelion_time": "2458201.917643269765",
        "mean_anomaly": "330.8298669120475",
        "mean_motion": ".6718497571761534",
        "equinox": "J2000",
        "orbit_class": {
            "orbit_class_type": "AMO",
            "orbit_class_description": "Near-Earth asteroid orbits similar to that of 1221 Amor",
            "orbit_class_range": "1.017 AU < q (perihelion) < 1.3 AU"
        }
    },
    "is_sentry_object": false
}